{"type": "FeatureCollection", "features": [ {"type": "Feature", "properties": {"norad_id": 35593, "name": "COSMOS 2251 DEB", "group": "cosmos-2251-debris", "lat": -70.13862053430253, "lon": 163.0752285147909, "alt_km": 755.0305143665255, "timestamp": "2025-12-11T08:58:27.521702+00:00", "meta": {"OBJECT_NAME": "COSMOS 2251 DEB", "OBJECT_ID": "1993-036AML", "EPOCH": "2025-12-11T02:42:25.142400", "MEAN_MOTION": 14.25584925, "ECCENTRICITY": 0.0105198, "INCLINATION": 74.0861, "RA_OF_ASC_NODE": 291.378, "ARG_OF_PERICENTER": 298.2541, "MEAN_ANOMALY": 60.8018, "EPHEMERIS_TYPE": 0, "CLASSIFICATION_TYPE": "U", "NORAD_CAT_ID": 35593, "ELEMENT_SET_NO": 999, "REV_AT_EPOCH": 85042, "BSTAR": 0.0017378, "MEAN_MOTION_DOT": 4.336e-05, "MEAN_MOTION_DDOT": 0}, "tle": {"line1": "1 35593U 93036AML 25345.11279100  .00004336  00000+0  17378-2 0  9999", "line2": "2 35593  74.0861 291.3780 0105198 298.2541  60.8018 14.25584925850425"}}, "geometry": {"type": "Point", "coordinates": [163.0752285147909, -70.13862053430253]}}, {"type": "Feature", "properties": {"norad_id": 35594, "name": "COSMOS 2251 DEB", "group": "cosmos-2251-debris", "lat": -68.44236810851515, "lon": -23.346910034598903, "alt_km": 594.1447470270523, "timestamp": "2025-12-11T08:58:27.521713+00:00", "meta": {"OBJECT_NAME": "COSMOS 2251 DEB", "OBJECT_ID": "1993-036AMM", "EPOCH": "2025-12-09T02:34:25.968000", "MEAN_MOTION": 14.87749225, "ECCENTRICITY": 0.00305448, "INCLINATION": 73.8074, "RA_OF_ASC_NODE": 113.8828, "ARG_OF_PERICENTER": 225.3103, "MEAN_ANOMALY": 134.5588, "EPHEMERIS_TYPE": 0, "CLASSIFICATION_TYPE": "U", "NORAD_CAT_ID": 35594, "ELEMENT_SET_NO": 999, "REV_AT_EPOCH": 88131, "BSTAR": 0.0022507147, "MEAN_MOTION_DOT": 0.00020735, "MEAN_MOTION_DDOT": 0}, "tle": {"line1": "1 35594U 93036AMM 25343.10724500  .00020735  00000+0  22507-2 0  9997", "line2": "2 35594  73.8074 113.8828 0030544 225.3103 134.5588 14.87749225881314"}}, "geometry": {"type": "Point", "coordinates": [-23.346910034598903, -68.44236810851515]}}, {"type": "Feature", "properties": {"norad_id": 35602, "name": "COSMOS 2251 DEB", "group": "cosmos-2251-debris", "lat": 44.22056245126731, "lon": -11.071973297064845, "alt_km": 485.1991917696123, "timestamp": "2025-12-11T08:58:27.521723+00:00", "meta": {"OBJECT_NAME": "COSMOS 2251 DEB", "OBJECT_ID": "1993-036AMV", "EPOCH": "2025-12-10T19:55:52.861152", "MEAN_MOTION": 15.34969027, "ECCENTRICITY": 0.00901366, "INCLINATION": 73.994, "RA_OF_ASC_NODE": 186.3179, "ARG_OF_PERICENTER": 252.5353, "MEAN_ANOMALY": 119.994, "EPHEMERIS_TYPE": 0, "CLASSIFICATION_TYPE": "U", "NORAD_CAT_ID": 35602, "ELEMENT_SET_NO": 999, "REV_AT_EPOCH": 90062, "BSTAR": 0.00066344174, "MEAN_MOTION_DOT": 0.00025766, "MEAN_MOTION_DDOT": 0}, "tle": {"line1": "1 35602U 93036AMV 25344.83047293  .00025766  00000+0  66344-3 0  9992", "line2": "2 35602  73.9940 186.3179 0090136 252.5353 119.9940 15.34969027900625"}}, "geometry": {"type": "Point", "coordinates": [-11.071973297064845, 44.22056245126731]}}, {"type": "Feature", "properties": {"norad_id": 35605, "name": "COSMOS 2251 DEB", "group": "cosmos-2251-debris", "lat": -6.797272120313133, "lon": 161.55379951368104, "alt_km": 469.51771960361566, "timestamp": "2025-12-11T08:58:27.521733+00:00", "meta": {"OBJECT_NAME": "COSMOS 2251 DEB", "OBJECT_ID": "1993-036AMY", "EPOCH": "2025-12-08T17:29:07.135584", "MEAN_MOTION": 15.31836492, "ECCENTRICITY": 0.00282066, "INCLINATION": 73.8723, "RA_OF_ASC_NODE": 345.2823, "ARG_OF_PERICENTER": 280.9051, "MEAN_ANOMALY": 78.8978, "EPHEMERIS_TYPE": 0, "CLASSIFICATION_TYPE": "U", "NORAD_CAT_ID": 35605, "ELEMENT_SET_NO": 999, "REV_AT_EPOCH": 65910, "BSTAR": 0.0070125726, "MEAN_MOTION_DOT": 0.002247, "MEAN_MOTION_DDOT": 0}, "tle": {"line1": "1 35605U 93036AMY 25342.72855481  .00224700  00000+0  70126-2 0  9998", "line2": "2 35605  73.8723 345.2823 0028206 280.9051  78.8978 15.31836492659101"}}, "geometry": {"type": "Point", "coordinates": [161.55379951368104, -6.797272120313133]}}, {"type": "Feature", "properties": {"norad_id": 35606, "name": "COSMOS 2251 DEB", "group": "cosmos-2251-debris", "lat": 73.47213511520839, "lon": 91.19902772741803, "alt_km": 1318.6084131819416, "timestamp": "2025-12-11T08:58:27.521743+00:00", "meta": {"OBJECT_NAME": "COSMOS 2251 DEB", "OBJECT_ID": "1993-036AMZ", "EPOCH": "2025-12-09T08:10:26.094720", "MEAN_MOTION": 13.41205491, "ECCENTRICITY": 0.04577322, "INCLINATION": 73.8107, "RA_OF_ASC_NODE": 16.2149, "ARG_OF_PERICENTER": 222.4362, "MEAN_ANOMALY": 134.0496, "EPHEMERIS_TYPE": 0, "CLASSIFICATION_TYPE": "U", "NORAD_CAT_ID": 35606, "ELEMENT_SET_NO": 999, "REV_AT_EPOCH": 60994, "BSTAR": 0.0014727579, "MEAN_MOTION_DOT": 1.492e-05, "MEAN_MOTION_DDOT": 0}, "tle": {"line1": "1 35606U 93036AMZ 25343.34057980  .00001492  00000+0  14728-2 0  9993", "line2": "2 35606  73.8107  16.2149 0457732 222.4362 134.0496 13.41205491609945"}}, "geometry": {"type": "Point", "coordinates": [91.19902772741803, 73.47213511520839]}}, {"type": "Feature", "properties": {"norad_id": 35611, "name": "COSMOS 2251 DEB", "group": "cosmos-2251-debris", "lat": -65.62707648688715, "lon": 142.72757529544566, "alt_km": 646.3751878212906, "timestamp": "2025-12-11T08:58:27.521754+00:00", "meta": {"OBJECT_NAME": "COSMOS 2251 DEB", "OBJECT_ID": "1993-036ANE", "EPOCH": "2025-12-10T21:53:07.871424", "MEAN_MOTION": 14.72760794, "ECCENTRICITY": 0.0021652, "INCLINATION": 74.0199, "RA_OF_ASC_NODE": 182.8637, "ARG_OF_PERICENTER": 256.2184, "MEAN_ANOMALY": 103.6579, "EPHEMERIS_TYPE": 0, "CLASSIFICATION_TYPE": "U", "NORAD_CAT_ID": 35611, "ELEMENT_SET_NO": 999, "REV_AT_EPOCH": 87263, "BSTAR": 0.0032758, "MEAN_MOTION_DOT": 0.00021038, "MEAN_MOTION_DDOT": 0}, "tle": {"line1": "1 35611U 93036ANE 25344.91189666  .00021038  00000+0  32758-2 0  9991", "line2": "2 35611  74.0199 182.8637 0021652 256.2184 103.6579 14.72760794872631"}}, "geometry": {"type": "Point", "coordinates": [142.72757529544566, -65.62707648688715]}}, {"type": "Feature", "properties": {"norad_id": 35614, "name": "COSMOS 2251 DEB", "group": "cosmos-2251-debris", "lat": 68.82173349343408, "lon": 18.06345636452849, "alt_km": 680.606391613378, "timestamp": "2025-12-11T08:58:27.521765+00:00", "meta": {"OBJECT_NAME": "COSMOS 2251 DEB", "OBJECT_ID": "1993-036ANH", "EPOCH": "2025-12-11T05:21:06.353280", "MEAN_MOTION": 14.66990688, "ECCENTRICITY": 0.0075858, "INCLINATION": 73.9592, "RA_OF_ASC_NODE": 330.4035, "ARG_OF_PERICENTER": 185.2586, "MEAN_ANOMALY": 174.7796, "EPHEMERIS_TYPE": 0, "CLASSIFICATION_TYPE": "U", "NORAD_CAT_ID": 35614, "ELEMENT_SET_NO": 999, "REV_AT_EPOCH": 87707, "BSTAR": 0.0012902, "MEAN_MOTION_DOT": 7.522e-05, "MEAN_MOTION_DDOT": 0}, "tle": {"line1": "1 35614U 93036ANH 25345.22299020  .00007522  00000+0  12902-2 0  9996", "line2": "2 35614  73.9592 330.4035 0075858 185.2586 174.7796 14.66990688877079"}}, "geometry": {"type": "Point", "coordinates": [18.06345636452849, 68.82173349343408]}}, {"type": "Feature", "properties": {"norad_id": 35645, "name": "COSMOS 2251 DEB", "group": "cosmos-2251-debris", "lat": -72.12292205490954, "lon": -26.622480986242657, "alt_km": 699.0637959791948, "timestamp": "2025-12-11T08:58:27.521775+00:00", "meta": {"OBJECT_NAME": "COSMOS 2251 DEB", "OBJECT_ID": "1993-036ANL", "EPOCH": "2025-12-10T23:27:31.601376", "MEAN_MOTION": 14.45538562, "ECCENTRICITY": 0.0069559, "INCLINATION": 73.9638, "RA_OF_ASC_NODE": 91.0323, "ARG_OF_PERICENTER": 249.0012, "MEAN_ANOMALY": 110.3695, "EPHEMERIS_TYPE": 0, "CLASSIFICATION_TYPE": "U", "NORAD_CAT_ID": 35645, "ELEMENT_SET_NO": 999, "REV_AT_EPOCH": 86746, "BSTAR": 0.003566, "MEAN_MOTION_DOT": 0.00012959, "MEAN_MOTION_DDOT": 0}, "tle": {"line1": "1 35645U 93036ANL 25344.97744909  .00012959  00000+0  35660-2 0  9998", "line2": "2 35645  73.9638  91.0323 0069559 249.0012 110.3695 14.45538562867460"}}, "geometry": {"type": "Point", "coordinates": [-26.622480986242657, -72.12292205490954]}}, {"type": "Feature", "properties": {"norad_id": 35646, "name": "COSMOS 2251 DEB", "group": "cosmos-2251-debris", "lat": -18.952449980566165, "lon": 52.49367965914808, "alt_km": 1449.1112589874447, "timestamp": "2025-12-11T08:58:27.521785+00:00", "meta": {"OBJECT_NAME": "COSMOS 2251 DEB", "OBJECT_ID": "1993-036ANM", "EPOCH": "2025-12-10T23:13:32.512224", "MEAN_MOTION": 13.40816666, "ECCENTRICITY": 0.0457083, "INCLINATION": 73.8721, "RA_OF_ASC_NODE": 58.8401, "ARG_OF_PERICENTER": 169.3144, "MEAN_ANOMALY": 10.2982, "EPHEMERIS_TYPE": 0, "CLASSIFICATION_TYPE": "U", "NORAD_CAT_ID": 35646, "ELEMENT_SET_NO": 999, "REV_AT_EPOCH": 81834, "BSTAR": 0.001382, "MEAN_MOTION_DOT": 1.389e-05, "MEAN_MOTION_DDOT": 0}, "tle": {"line1": "1 35646U 93036ANM 25344.96773741  .00001389  00000+0  13820-2 0  9993", "line2": "2 35646  73.8721  58.8401 0457083 169.3144  10.2982 13.40816666818342"}}, "geometry": {"type": "Point", "coordinates": [52.49367965914808, -18.952449980566165]}}, {"type": "Feature", "properties": {"norad_id": 35647, "name": "COSMOS 2251 DEB", "group": "cosmos-2251-debris", "lat": -17.230330752859743, "lon": -67.99026076778676, "alt_km": 732.1245627551161, "timestamp": "2025-12-11T08:58:27.521795+00:00", "meta": {"OBJECT_NAME": "COSMOS 2251 DEB", "OBJECT_ID": "1993-036ANN", "EPOCH": "2025-12-10T14:45:43.130592", "MEAN_MOTION": 14.43615239, "ECCENTRICITY": 0.0045496, "INCLINATION": 74.0232, "RA_OF_ASC_NODE": 298.5182, "ARG_OF_PERICENTER": 38.1034, "MEAN_ANOMALY": 322.3325, "EPHEMERIS_TYPE": 0, "CLASSIFICATION_TYPE": "U", "NORAD_CAT_ID": 35647, "ELEMENT_SET_NO": 999, "REV_AT_EPOCH": 67633, "BSTAR": 0.001375, "MEAN_MOTION_DOT": 4.698e-05, "MEAN_MOTION_DDOT": 0}, "tle": {"line1": "1 35647U 93036ANN 25344.61508253  .00004698  00000+0  13750-2 0  9998", "line2": "2 35647  74.0232 298.5182 0045496  38.1034 322.3325 14.43615239676330"}}, "geometry": {"type": "Point", "coordinates": [-67.99026076778676, -17.230330752859743]}}]}